SENTINEL-6              
1 46984U 20086A   24107.08320769 -.00000040  00000+0  89169-4 0  9997
2 46984  66.0436 340.2622 0007786 271.3089  88.7034 12.80929896158991
